{
  "type": "FeatureCollection",
  "name": "Saint Martins Cemetery OSM boundary",
  "bbox": [-80.0396906, 40.4470562, -80.0366967, 40.4490088],
  "features": [
    {
      "type": "Feature",
      "id": "way/541388870",
      "properties": {
        "name": "Saint Martins Cemetery",
        "osm_type": "way",
        "osm_id": 541388870,
        "osm_version": 4,
        "osm_timestamp": "2024-08-12T08:19:16Z",
        "attribution": "© OpenStreetMap contributors",
        "copyright_url": "https://www.openstreetmap.org/copyright",
        "license": "Open Database License (ODbL) 1.0",
        "license_url": "https://opendatacommons.org/licenses/odbl/1-0/",
        "purpose": "Privacy and public-crop screening proxy",
        "disclaimer": "This OSM geometry is not proof of a legal parcel boundary, ownership, access, authorization, or publication rights."
      },
      "geometry": {
        "type": "Polygon",
        "coordinates": [
          [
            [-80.038913, 40.4470562],
            [-80.0393291, 40.4474432],
            [-80.039394, 40.4474847],
            [-80.0394457, 40.4475037],
            [-80.0394996, 40.4475177],
            [-80.0395689, 40.4475367],
            [-80.0396154, 40.4475667],
            [-80.0396462, 40.4476074],
            [-80.0396737, 40.4476704],
            [-80.0396906, 40.4477431],
            [-80.0396891, 40.4478089],
            [-80.0396786, 40.4478504],
            [-80.0396408, 40.4479138],
            [-80.0395949, 40.4479731],
            [-80.039523, 40.4480491],
            [-80.0394196, 40.4481382],
            [-80.0392932, 40.4482168],
            [-80.0391086, 40.4483573],
            [-80.0389756, 40.4484822],
            [-80.0389051, 40.4485693],
            [-80.0388649, 40.4486419],
            [-80.0388409, 40.4487201],
            [-80.0388159, 40.4487679],
            [-80.0387887, 40.4488071],
            [-80.0387412, 40.4488271],
            [-80.0386999, 40.4488411],
            [-80.0386608, 40.448865],
            [-80.0386143, 40.4489056],
            [-80.0385738, 40.4489184],
            [-80.038538, 40.4489112],
            [-80.0385116, 40.4488781],
            [-80.0384888, 40.4488661],
            [-80.0384642, 40.4488577],
            [-80.0384243, 40.4488598],
            [-80.0383978, 40.4488641],
            [-80.0383625, 40.4488886],
            [-80.0383083, 40.4489222],
            [-80.0382008, 40.4489647],
            [-80.0381603, 40.448973],
            [-80.0381227, 40.448985],
            [-80.0380822, 40.4489991],
            [-80.038035, 40.4489971],
            [-80.0379968, 40.4489869],
            [-80.0379762, 40.4489698],
            [-80.0379498, 40.4489548],
            [-80.0379069, 40.4489486],
            [-80.0378509, 40.4489545],
            [-80.0378201, 40.4489886],
            [-80.0377991, 40.4490026],
            [-80.0377746, 40.4490082],
            [-80.0377323, 40.4490088],
            [-80.0374619, 40.4489727],
            [-80.0373688, 40.4489534],
            [-80.0372565, 40.4488939],
            [-80.0370701, 40.4487795],
            [-80.0368874, 40.4486524],
            [-80.0366967, 40.4485058],
            [-80.037433, 40.4480319],
            [-80.0377565, 40.4478076],
            [-80.0383384, 40.4474193],
            [-80.038913, 40.4470562]
          ]
        ]
      }
    }
  ]
}

